start=new Date('2022-12-29T00:00:00.000Z').valueOf();
sats=[{"MEAN_ANOMALY":"319.9223","APOAPSIS":"541.540","SITE":"AFETR","COUNTRY_CODE":"US","EPHEMERIS_TYPE":"0","CENTER_NAME":"EARTH","GP_ID":"221664152","TLE_LINE1":"1 52701U 22053AX  22362.33690276  .00002299  00000-0  16248-3 0  9994","PERIAPSIS":"537.889","EPOCH":"2022-12-28T08:05:08.398464","TIME_SYSTEM":"UTC","TLE_LINE2":"2 52701  53.2200 334.5832 0002639  40.1964 319.9223 15.08850046 35083","MEAN_MOTION_DOT":"0.00002299","RA_OF_ASC_NODE":"334.5832","BSTAR":"0.00016248000000","CLASSIFICATION_TYPE":"U","ARG_OF_PERICENTER":"40.1964","INCLINATION":"53.2200","MEAN_MOTION_DDOT":"0.0000000000000","MEAN_MOTION":"15.08850046","MEAN_ELEMENT_THEORY":"SGP4","DECAY_DATE":null,"REV_AT_EPOCH":"3508","ECCENTRICITY":"0.00026390","SEMIMAJOR_AXIS":"6917.850","LAUNCH_DATE":"2022-05-18","FILE":"3724805","REF_FRAME":"TEME","OBJECT_ID":"2022-053AX","ELEMENT_SET_NO":"999","NORAD_CAT_ID":"52701","PERIOD":"95.437","OBJECT_NAME":"STARLINK-4003","OBJECT_TYPE":"PAYLOAD","RCS_SIZE":"LARGE"},{"MEAN_MOTION_DOT":"0.00002503","TIME_SYSTEM":"UTC","TLE_LINE2":"2 52702  53.2194 350.6485 0002506  31.0350 329.0790 15.08855201 34820","BSTAR":"0.00017522000000","CLASSIFICATION_TYPE":"U","ARG_OF_PERICENTER":"31.0350","RA_OF_ASC_NODE":"350.6485","SITE":"AFETR","COUNTRY_CODE":"US","EPHEMERIS_TYPE":"0","CENTER_NAME":"EARTH","MEAN_ANOMALY":"329.0790","APOAPSIS":"541.433","TLE_LINE1":"1 52702U 22053AY  22362.09911318  .00002503  00000-0  17522-3 0  9995","EPOCH":"2022-12-28T02:22:43.378752","PERIAPSIS":"537.965","GP_ID":"221663903","PERIOD":"95.437","NORAD_CAT_ID":"52702","RCS_SIZE":"LARGE","OBJECT_NAME":"STARLINK-4033","OBJECT_TYPE":"PAYLOAD","MEAN_MOTION":"15.08855201","MEAN_ELEMENT_THEORY":"SGP4","DECAY_DATE":null,"REV_AT_EPOCH":"3482","MEAN_MOTION_DDOT":"0.0000000000000","INCLINATION":"53.2194","OBJECT_ID":"2022-053AY","ELEMENT_SET_NO":"999","ECCENTRICITY":"0.00025060","LAUNCH_DATE":"2022-05-18","SEMIMAJOR_AXIS":"6917.834","FILE":"3724805","REF_FRAME":"TEME"},{"ARG_OF_PERICENTER":"33.3302","CLASSIFICATION_TYPE":"U","BSTAR":"0.00017468000000","RA_OF_ASC_NODE":"334.6283","MEAN_MOTION_DOT":"0.00002494","TLE_LINE2":"2 52703  53.2178 334.6283 0002691  33.3302 326.7860 15.08854015 33809","TIME_SYSTEM":"UTC","PERIAPSIS":"537.841","EPOCH":"2022-12-28T07:49:13.872000","TLE_LINE1":"1 52703U 22053AZ  22362.32585500  .00002494  00000-0  17468-3 0  9990","GP_ID":"221665154","CENTER_NAME":"EARTH","EPHEMERIS_TYPE":"0","COUNTRY_CODE":"US","SITE":"AFETR","APOAPSIS":"541.564","MEAN_ANOMALY":"326.7860","RCS_SIZE":"LARGE","OBJECT_TYPE":"PAYLOAD","OBJECT_NAME":"STARLINK-4020","PERIOD":"95.437","NORAD_CAT_ID":"52703","ELEMENT_SET_NO":"999","OBJECT_ID":"2022-053AZ","REF_FRAME":"TEME","FILE":"3724805","LAUNCH_DATE":"2022-05-18","SEMIMAJOR_AXIS":"6917.838","ECCENTRICITY":"0.00026910","REV_AT_EPOCH":"3380","DECAY_DATE":null,"MEAN_ELEMENT_THEORY":"SGP4","MEAN_MOTION":"15.08854015","MEAN_MOTION_DDOT":"0.0000000000000","INCLINATION":"53.2178"},{"GP_ID":"221669681","TLE_LINE1":"1 52704U 22053BA  22362.07561988  .00006696  00000-0  43811-3 0  9996","PERIAPSIS":"538.038","EPOCH":"2022-12-28T01:48:53.557632","APOAPSIS":"541.292","MEAN_ANOMALY":"328.4539","EPHEMERIS_TYPE":"0","SITE":"AFETR","COUNTRY_CODE":"US","CENTER_NAME":"EARTH","RA_OF_ASC_NODE":"335.7549","CLASSIFICATION_TYPE":"U","BSTAR":"0.00043811000000","ARG_OF_PERICENTER":"31.6595","TLE_LINE2":"2 52704  53.2179 335.7549 0002352  31.6595 328.4539 15.08866196 34612","TIME_SYSTEM":"UTC","MEAN_MOTION_DOT":"0.00006696","LAUNCH_DATE":"2022-05-18","SEMIMAJOR_AXIS":"6917.800","ECCENTRICITY":"0.00023520","REF_FRAME":"TEME","FILE":"3724921","OBJECT_ID":"2022-053BA","ELEMENT_SET_NO":"999","MEAN_MOTION_DDOT":"0.0000000000000","INCLINATION":"53.2179","MEAN_MOTION":"15.08866196","REV_AT_EPOCH":"3461","MEAN_ELEMENT_THEORY":"SGP4","DECAY_DATE":null,"OBJECT_NAME":"STARLINK-3999","OBJECT_TYPE":"PAYLOAD","RCS_SIZE":"LARGE","NORAD_CAT_ID":"52704","PERIOD":"95.436"},{"OBJECT_ID":"2022-053BB","ELEMENT_SET_NO":"999","LAUNCH_DATE":"2022-05-18","SEMIMAJOR_AXIS":"6917.838","ECCENTRICITY":"0.00031260","REF_FRAME":"TEME","FILE":"3724805","MEAN_MOTION":"15.08853968","REV_AT_EPOCH":"3503","DECAY_DATE":null,"MEAN_ELEMENT_THEORY":"SGP4","MEAN_MOTION_DDOT":"0.0000000000000","INCLINATION":"53.2161","RCS_SIZE":"LARGE","OBJECT_NAME":"STARLINK-3844","OBJECT_TYPE":"PAYLOAD","PERIOD":"95.437","NORAD_CAT_ID":"52705","TLE_LINE1":"1 52705U 22053BB  22361.99834318  .00004966  00000-0  32979-3 0  9998","PERIAPSIS":"537.540","EPOCH":"2022-12-27T23:57:36.850752","GP_ID":"221663653","EPHEMERIS_TYPE":"0","COUNTRY_CODE":"US","SITE":"AFETR","CENTER_NAME":"EARTH","APOAPSIS":"541.865","MEAN_ANOMALY":"329.9515","BSTAR":"0.00032979000000","CLASSIFICATION_TYPE":"U","ARG_OF_PERICENTER":"30.1657","RA_OF_ASC_NODE":"336.1010","MEAN_MOTION_DOT":"0.00004966","TLE_LINE2":"2 52705  53.2161 336.1010 0003126  30.1657 329.9515 15.08853968 35035","TIME_SYSTEM":"UTC"},{"FILE":"3724923","REF_FRAME":"TEME","ECCENTRICITY":"0.00030830","SEMIMAJOR_AXIS":"6917.816","LAUNCH_DATE":"2022-05-18","ELEMENT_SET_NO":"999","OBJECT_ID":"2022-053BC","INCLINATION":"53.2166","MEAN_MOTION_DDOT":"0.0000000000000","MEAN_ELEMENT_THEORY":"SGP4","DECAY_DATE":null,"REV_AT_EPOCH":"3460","MEAN_MOTION":"15.08861084","OBJECT_TYPE":"PAYLOAD","OBJECT_NAME":"STARLINK-3970","RCS_SIZE":"LARGE","NORAD_CAT_ID":"52706","PERIOD":"95.436","GP_ID":"221669917","EPOCH":"2022-12-28T00:02:54.363840","PERIAPSIS":"537.548","TLE_LINE1":"1 52706U 22053BC  22362.00201810  .00006530  00000-0  42776-3 0  9992","MEAN_ANOMALY":"338.0375","APOAPSIS":"541.814","CENTER_NAME":"EARTH","SITE":"AFETR","COUNTRY_CODE":"US","EPHEMERIS_TYPE":"0","RA_OF_ASC_NODE":"336.0849","ARG_OF_PERICENTER":"22.0749","BSTAR":"0.00042776000000","CLASSIFICATION_TYPE":"U","TIME_SYSTEM":"UTC","TLE_LINE2":"2 52706  53.2166 336.0849 0003083  22.0749 338.0375 15.08861084 34609","MEAN_MOTION_DOT":"0.00006530"},{"GP_ID":"221664654","TLE_LINE1":"1 52707U 22053BD  22361.92569637  .00000894  00000-0  74270-4 0  9999","PERIAPSIS":"537.647","EPOCH":"2022-12-27T22:13:00.166368","MEAN_ANOMALY":"341.0384","APOAPSIS":"541.785","SITE":"AFETR","COUNTRY_CODE":"US","EPHEMERIS_TYPE":"0","CENTER_NAME":"EARTH","RA_OF_ASC_NODE":"336.4292","CLASSIFICATION_TYPE":"U","BSTAR":"0.00007427000000","ARG_OF_PERICENTER":"19.0720","TIME_SYSTEM":"UTC","TLE_LINE2":"2 52707  53.2194 336.4292 0002991  19.0720 341.0384 15.08849665 35087","MEAN_MOTION_DOT":"0.00000894","ECCENTRICITY":"0.00029910","SEMIMAJOR_AXIS":"6917.851","LAUNCH_DATE":"2022-05-18","FILE":"3724805","REF_FRAME":"TEME","OBJECT_ID":"2022-053BD","ELEMENT_SET_NO":"999","INCLINATION":"53.2194","MEAN_MOTION_DDOT":"0.0000000000000","MEAN_MOTION":"15.08849665","DECAY_DATE":null,"MEAN_ELEMENT_THEORY":"SGP4","REV_AT_EPOCH":"3508","OBJECT_NAME":"STARLINK-4007","OBJECT_TYPE":"PAYLOAD","RCS_SIZE":"LARGE","NORAD_CAT_ID":"52707","PERIOD":"95.437"},{"INCLINATION":"53.2171","MEAN_MOTION_DDOT":"0.0000000000000","REV_AT_EPOCH":"3451","DECAY_DATE":null,"MEAN_ELEMENT_THEORY":"SGP4","MEAN_MOTION":"15.08847363","REF_FRAME":"TEME","FILE":"3724046","LAUNCH_DATE":"2022-05-18","SEMIMAJOR_AXIS":"6917.858","ECCENTRICITY":"0.00022980","ELEMENT_SET_NO":"999","OBJECT_ID":"2022-053BE","NORAD_CAT_ID":"52708","PERIOD":"95.437","OBJECT_TYPE":"PAYLOAD","OBJECT_NAME":"STARLINK-3962","RCS_SIZE":"LARGE","APOAPSIS":"541.313","MEAN_ANOMALY":"311.3523","CENTER_NAME":"EARTH","EPHEMERIS_TYPE":"0","COUNTRY_CODE":"US","SITE":"AFETR","GP_ID":"221596950","EPOCH":"2022-12-27T08:42:14.319936","PERIAPSIS":"538.133","TLE_LINE1":"1 52708U 22053BE  22361.36266574  .00000445  00000-0  46079-4 0  9990","TLE_LINE2":"2 52708  53.2171 338.9477 0002298  48.7667 311.3523 15.08847363 34519","TIME_SYSTEM":"UTC","MEAN_MOTION_DOT":"0.00000445","RA_OF_ASC_NODE":"338.9477","ARG_OF_PERICENTER":"48.7667","CLASSIFICATION_TYPE":"U","BSTAR":"0.00004607900000"},{"DECAY_DATE":null,"MEAN_ELEMENT_THEORY":"SGP4","REV_AT_EPOCH":"2961","MEAN_MOTION":"15.08838276","MEAN_MOTION_DDOT":"0.0000000000000","INCLINATION":"53.2168","ELEMENT_SET_NO":"999","OBJECT_ID":"2022-062A","FILE":"3725038","REF_FRAME":"TEME","ECCENTRICITY":"0.00024260","SEMIMAJOR_AXIS":"6917.886","LAUNCH_DATE":"2022-06-17","PERIOD":"95.438","NORAD_CAT_ID":"52830","RCS_SIZE":"LARGE","OBJECT_TYPE":"PAYLOAD","OBJECT_NAME":"STARLINK-4091","CENTER_NAME":"EARTH","SITE":"AFETR","COUNTRY_CODE":"US","EPHEMERIS_TYPE":"0","MEAN_ANOMALY":"329.7100","APOAPSIS":"541.429","PERIAPSIS":"538.072","EPOCH":"2022-12-28T17:56:01.033152","TLE_LINE1":"1 52830U 22062A   22362.74723418 -.00000322  00000-0 -20800-5 0  9995","GP_ID":"221695339","MEAN_MOTION_DOT":"-0.00000322","TIME_SYSTEM":"UTC","TLE_LINE2":"2 52830  53.2168 232.7199 0002426  30.4033 329.7100 15.08838276 29613","ARG_OF_PERICENTER":"30.4033","BSTAR":"-0.00000208000000","CLASSIFICATION_TYPE":"U","RA_OF_ASC_NODE":"232.7199"},{"PERIOD":"95.438","NORAD_CAT_ID":"52831","RCS_SIZE":"LARGE","OBJECT_NAME":"STARLINK-4089","OBJECT_TYPE":"PAYLOAD","MEAN_MOTION":"15.08838129","REV_AT_EPOCH":"2961","MEAN_ELEMENT_THEORY":"SGP4","DECAY_DATE":null,"INCLINATION":"53.2159","MEAN_MOTION_DDOT":"0.0000000000000","OBJECT_ID":"2022-062B","ELEMENT_SET_NO":"999","LAUNCH_DATE":"2022-06-17","SEMIMAJOR_AXIS":"6917.886","ECCENTRICITY":"0.00015730","REF_FRAME":"TEME","FILE":"3725038","MEAN_MOTION_DOT":"0.00000444","TLE_LINE2":"2 52831  53.2159 232.6769 0001573  64.9009 295.2147 15.08838129 29618","TIME_SYSTEM":"UTC","CLASSIFICATION_TYPE":"U","BSTAR":"0.00004598000000","ARG_OF_PERICENTER":"64.9009","RA_OF_ASC_NODE":"232.6769","EPHEMERIS_TYPE":"0","COUNTRY_CODE":"US","SITE":"AFETR","CENTER_NAME":"EARTH","APOAPSIS":"540.839","MEAN_ANOMALY":"295.2147","TLE_LINE1":"1 52831U 22062B   22362.75827587  .00000444  00000-0  45980-4 0  9997","PERIAPSIS":"538.663","EPOCH":"2022-12-28T18:11:55.035168","GP_ID":"221696587"}];
